{"type": "FeatureCollection", "features": [ {"type": "Feature", "properties": {"norad_id": 66659, "name": "JACK K", "group": "last-30-days", "lat": 51.26399358561203, "lon": 104.33137554541783, "alt_km": 591.7251802086903, "timestamp": "2025-12-13T08:49:14.457423+00:00", "meta": {"OBJECT_NAME": "JACK K", "OBJECT_ID": "2025-274K", "EPOCH": "2025-12-12T17:46:12.059040", "MEAN_MOTION": 14.92808742, "ECCENTRICITY": 0.00120213, "INCLINATION": 97.7382, "RA_OF_ASC_NODE": 273.9556, "ARG_OF_PERICENTER": 280.3717, "MEAN_ANOMALY": 79.6147, "EPHEMERIS_TYPE": 0, "CLASSIFICATION_TYPE": "U", "NORAD_CAT_ID": 66659, "ELEMENT_SET_NO": 999, "REV_AT_EPOCH": 240, "BSTAR": 0.00046288729, "MEAN_MOTION_DOT": 4.739e-05, "MEAN_MOTION_DDOT": 0}, "tle": {"line1": "1 66659U 25274K   25346.74041735  .00004739  00000+0  46289-3 0  9997", "line2": "2 66659  97.7382 273.9556 0012021 280.3717  79.6147 14.92808742  2406"}}, "geometry": {"type": "Point", "coordinates": [104.33137554541783, 51.26399358561203]}}, {"type": "Feature", "properties": {"norad_id": 66660, "name": "K-HERO", "group": "last-30-days", "lat": 42.45470641029776, "lon": 101.72328918231835, "alt_km": 592.1561126256083, "timestamp": "2025-12-13T08:49:14.457434+00:00", "meta": {"OBJECT_NAME": "K-HERO", "OBJECT_ID": "2025-274L", "EPOCH": "2025-12-12T20:56:54.187296", "MEAN_MOTION": 14.92959825, "ECCENTRICITY": 0.00126329, "INCLINATION": 97.7388, "RA_OF_ASC_NODE": 274.09, "ARG_OF_PERICENTER": 280.2924, "MEAN_ANOMALY": 79.6871, "EPHEMERIS_TYPE": 0, "CLASSIFICATION_TYPE": "U", "NORAD_CAT_ID": 66660, "ELEMENT_SET_NO": 999, "REV_AT_EPOCH": 242, "BSTAR": 0.00042692655, "MEAN_MOTION_DOT": 4.384e-05, "MEAN_MOTION_DDOT": 0}, "tle": {"line1": "1 66660U 25274L   25346.87284939  .00004384  00000+0  42693-3 0  9999", "line2": "2 66660  97.7388 274.0900 0012632 280.2924  79.6871 14.92959825  2421"}}, "geometry": {"type": "Point", "coordinates": [101.72328918231835, 42.45470641029776]}}, {"type": "Feature", "properties": {"norad_id": 66661, "name": "SNUGLITE-III", "group": "last-30-days", "lat": 33.68130653525718, "lon": 99.77944121510683, "alt_km": 592.6356342419595, "timestamp": "2025-12-13T08:49:14.457446+00:00", "meta": {"OBJECT_NAME": "SNUGLITE-III", "OBJECT_ID": "2025-274M", "EPOCH": "2025-12-12T20:54:34.670304", "MEAN_MOTION": 14.93098958, "ECCENTRICITY": 0.00133561, "INCLINATION": 97.7384, "RA_OF_ASC_NODE": 274.0918, "ARG_OF_PERICENTER": 281.3992, "MEAN_ANOMALY": 78.5727, "EPHEMERIS_TYPE": 0, "CLASSIFICATION_TYPE": "U", "NORAD_CAT_ID": 66661, "ELEMENT_SET_NO": 999, "REV_AT_EPOCH": 242, "BSTAR": 0.00040097821, "MEAN_MOTION_DOT": 4.129e-05, "MEAN_MOTION_DDOT": 0}, "tle": {"line1": "1 66661U 25274M   25346.87123461  .00004129  00000+0  40098-3 0  9996", "line2": "2 66661  97.7384 274.0918 0013356 281.3992  78.5727 14.93098958  2428"}}, "geometry": {"type": "Point", "coordinates": [99.77944121510683, 33.68130653525718]}}, {"type": "Feature", "properties": {"norad_id": 66662, "name": "2025-274N", "group": "last-30-days", "lat": 30.2525803227458, "lon": 99.13030490406945, "alt_km": 592.7590386902566, "timestamp": "2025-12-13T08:49:14.457456+00:00", "meta": {"OBJECT_NAME": "2025-274N", "OBJECT_ID": "2025-274N", "EPOCH": "2025-12-12T20:53:40.108704", "MEAN_MOTION": 14.93150315, "ECCENTRICITY": 0.00137914, "INCLINATION": 97.7384, "RA_OF_ASC_NODE": 274.0926, "ARG_OF_PERICENTER": 281.0669, "MEAN_ANOMALY": 78.8999, "EPHEMERIS_TYPE": 0, "CLASSIFICATION_TYPE": "U", "NORAD_CAT_ID": 66662, "ELEMENT_SET_NO": 999, "REV_AT_EPOCH": 242, "BSTAR": 0.00042220139, "MEAN_MOTION_DOT": 4.357e-05, "MEAN_MOTION_DDOT": 0}, "tle": {"line1": "1 66662U 25274N   25346.87060311  .00004357  00000+0  42220-3 0  9993", "line2": "2 66662  97.7384 274.0926 0013791 281.0669  78.8999 14.93150315  2429"}}, "geometry": {"type": "Point", "coordinates": [99.13030490406945, 30.2525803227458]}}, {"type": "Feature", "properties": {"norad_id": 66663, "name": "KSLV-II R/B", "group": "last-30-days", "lat": 41.41382715650224, "lon": -92.18772737843848, "alt_km": 568.083030898797, "timestamp": "2025-12-13T08:49:14.457466+00:00", "meta": {"OBJECT_NAME": "KSLV-II R/B", "OBJECT_ID": "2025-274P", "EPOCH": "2025-12-12T19:48:15.224544", "MEAN_MOTION": 14.97302945, "ECCENTRICITY": 0.00522806, "INCLINATION": 97.7408, "RA_OF_ASC_NODE": 274.166, "ARG_OF_PERICENTER": 319.515, "MEAN_ANOMALY": 40.2187, "EPHEMERIS_TYPE": 0, "CLASSIFICATION_TYPE": "U", "NORAD_CAT_ID": 66663, "ELEMENT_SET_NO": 999, "REV_AT_EPOCH": 242, "BSTAR": 0.0012317684, "MEAN_MOTION_DOT": 0.00014649, "MEAN_MOTION_DDOT": 0}, "tle": {"line1": "1 66663U 25274P   25346.82517621  .00014649  00000+0  12318-2 0  9999", "line2": "2 66663  97.7408 274.1660 0052280 319.5150  40.2187 14.97302945  2425"}}, "geometry": {"type": "Point", "coordinates": [-92.18772737843848, 41.41382715650224]}}, {"type": "Feature", "properties": {"norad_id": 66664, "name": "SOYUZ-MS 28", "group": "last-30-days", "lat": -46.0486009620654, "lon": 84.10053820658376, "alt_km": 421.0543044481019, "timestamp": "2025-12-13T08:49:14.457479+00:00", "meta": {"OBJECT_NAME": "SOYUZ-MS 28", "OBJECT_ID": "2025-275A", "EPOCH": "2025-12-12T20:43:30.984384", "MEAN_MOTION": 15.49550036, "ECCENTRICITY": 0.00032451, "INCLINATION": 51.6304, "RA_OF_ASC_NODE": 141.8664, "ARG_OF_PERICENTER": 240.6311, "MEAN_ANOMALY": 119.4354, "EPHEMERIS_TYPE": 0, "CLASSIFICATION_TYPE": "U", "NORAD_CAT_ID": 66664, "ELEMENT_SET_NO": 999, "REV_AT_EPOCH": 128, "BSTAR": 0.00025741225, "MEAN_MOTION_DOT": 0.00014033, "MEAN_MOTION_DDOT": 0}, "tle": {"line1": "1 66664U 25275A   25346.86355306  .00014033  00000+0  25741-3 0  9997", "line2": "2 66664  51.6304 141.8664 0003245 240.6311 119.4354 15.49550036  1286"}}, "geometry": {"type": "Point", "coordinates": [84.10053820658376, -46.0486009620654]}}, {"type": "Feature", "properties": {"norad_id": 66791, "name": "STARLINK-35867", "group": "last-30-days", "lat": 10.159192308626892, "lon": -100.65209020521786, "alt_km": 310.3600183029557, "timestamp": "2025-12-13T08:49:14.457489+00:00", "meta": {"OBJECT_NAME": "STARLINK-35867", "OBJECT_ID": "2025-278A", "EPOCH": "2025-12-12T19:09:51.451488", "MEAN_MOTION": 15.87189628, "ECCENTRICITY": 0.00022639, "INCLINATION": 42.9976, "RA_OF_ASC_NODE": 251.7746, "ARG_OF_PERICENTER": 243.2909, "MEAN_ANOMALY": 116.7733, "EPHEMERIS_TYPE": 0, "CLASSIFICATION_TYPE": "U", "NORAD_CAT_ID": 66791, "ELEMENT_SET_NO": 999, "REV_AT_EPOCH": 184, "BSTAR": -0.0010184614, "MEAN_MOTION_DOT": -0.0026751, "MEAN_MOTION_DDOT": 0}, "tle": {"line1": "1 66791U 25278A   25346.79851217 -.00267510  00000+0 -10185-2 0  9992", "line2": "2 66791  42.9976 251.7746 0002263 243.2909 116.7733 15.87189628  1848"}}, "geometry": {"type": "Point", "coordinates": [-100.65209020521786, 10.159192308626892]}}, {"type": "Feature", "properties": {"norad_id": 66792, "name": "STARLINK-35990", "group": "last-30-days", "lat": 11.374476383312258, "lon": -99.27659490229763, "alt_km": 308.9883958553919, "timestamp": "2025-12-13T08:49:14.457499+00:00", "meta": {"OBJECT_NAME": "STARLINK-35990", "OBJECT_ID": "2025-278B", "EPOCH": "2025-12-12T17:38:48.609312", "MEAN_MOTION": 15.87325977, "ECCENTRICITY": 0.00032094, "INCLINATION": 42.998, "RA_OF_ASC_NODE": 252.1605, "ARG_OF_PERICENTER": 289.104, "MEAN_ANOMALY": 70.9486, "EPHEMERIS_TYPE": 0, "CLASSIFICATION_TYPE": "U", "NORAD_CAT_ID": 66792, "ELEMENT_SET_NO": 999, "REV_AT_EPOCH": 183, "BSTAR": -0.0013782196, "MEAN_MOTION_DOT": -0.00360633, "MEAN_MOTION_DDOT": 0}, "tle": {"line1": "1 66792U 25278B   25346.73528483 -.00360633  00000+0 -13782-2 0  9999", "line2": "2 66792  42.9980 252.1605 0003209 289.1040  70.9486 15.87325977  1833"}}, "geometry": {"type": "Point", "coordinates": [-99.27659490229763, 11.374476383312258]}}, {"type": "Feature", "properties": {"norad_id": 66793, "name": "STARLINK-36051", "group": "last-30-days", "lat": 14.657391343297268, "lon": -95.45628485752468, "alt_km": 309.9759577390805, "timestamp": "2025-12-13T08:49:14.457511+00:00", "meta": {"OBJECT_NAME": "STARLINK-36051", "OBJECT_ID": "2025-278C", "EPOCH": "2025-12-12T19:08:07.847520", "MEAN_MOTION": 15.87194207, "ECCENTRICITY": 0.00024027, "INCLINATION": 42.9969, "RA_OF_ASC_NODE": 251.7629, "ARG_OF_PERICENTER": 248.4866, "MEAN_ANOMALY": 111.5751, "EPHEMERIS_TYPE": 0, "CLASSIFICATION_TYPE": "U", "NORAD_CAT_ID": 66793, "ELEMENT_SET_NO": 999, "REV_AT_EPOCH": 184, "BSTAR": -0.0012635404, "MEAN_MOTION_DOT": -0.00329553, "MEAN_MOTION_DDOT": 0}, "tle": {"line1": "1 66793U 25278C   25346.79731305 -.00329553  00000+0 -12635-2 0  9997", "line2": "2 66793  42.9969 251.7629 0002402 248.4866 111.5751 15.87194207  1848"}}, "geometry": {"type": "Point", "coordinates": [-95.45628485752468, 14.657391343297268]}}, {"type": "Feature", "properties": {"norad_id": 66794, "name": "STARLINK-36062", "group": "last-30-days", "lat": 13.842388379899589, "lon": -96.4183326101793, "alt_km": 315.0072663267474, "timestamp": "2025-12-13T08:49:14.457522+00:00", "meta": {"OBJECT_NAME": "STARLINK-36062", "OBJECT_ID": "2025-278D", "EPOCH": "2025-12-12T19:08:04.746624", "MEAN_MOTION": 15.87288015, "ECCENTRICITY": 0.00037515, "INCLINATION": 42.9971, "RA_OF_ASC_NODE": 251.7652, "ARG_OF_PERICENTER": 248.9687, "MEAN_ANOMALY": 111.0785, "EPHEMERIS_TYPE": 0, "CLASSIFICATION_TYPE": "U", "NORAD_CAT_ID": 66794, "ELEMENT_SET_NO": 999, "REV_AT_EPOCH": 184, "BSTAR": -0.0066143343, "MEAN_MOTION_DOT": -0.01579906, "MEAN_MOTION_DDOT": 0}, "tle": {"line1": "1 66794U 25278D   25346.79727716 -.01579906  00000+0 -66143-2 0  9992", "line2": "2 66794  42.9971 251.7652 0003751 248.9687 111.0785 15.87288015  1845"}}, "geometry": {"type": "Point", "coordinates": [-96.4183326101793, 13.842388379899589]}}]}